Id;Address;Longitude;Latitude;CenterDistance;Station;StationDistance;District;Cena;LnCena;CenaM;Nkomnat;Elit;PlOb;LnPlOb;PlZ;LnPlZ;PlK;LnPlK;ketaz;Type;God;Tel;Bal
1;Космонавтов, 23/43;27,460169;53,850895;8774;Кунцевщина;6137;Московский;40000;10,5966347331;1333;1;2;30;3,4011973817;12;2,4849066498;7;1,9459101491;0;0;1986;1;0
2;Лещинского, 17;27,451168;53,909981;7298;Кунцевщина;485;Фрунзенский;37700;10,5374153734;1257;1;0;30;3,4011973817;12;2,4849066498;7;1,9459101491;0;0;1980;1;0
3;Чигладзе, 6/2;27,500862;53,925916;4780;Пушкинская;1847;Фрунзенский;37000;10,5186731916;1762;1;1;21;3,0445224377;12;2,4849066498;5;1,6094379124;1;1;1971;1;1
4;Дунина-Марцинкевича, 4/2;27,487603;53,905955;4879;Спортивная;519;Фрунзенский;41000;10,6213273457;1464;1;0;28;3,3322045102;13;2,5649493575;8;2,0794415417;0;0;1978;1;1
5;пер. Броневой, 13;27,580812;53,90578;1300;Площадь Победы;531;Партизанский;59500;10,9937315915;1750;1;2;34;3,5263605246;14;2,6390573296;6;1,7917594692;0;1;1956;1;0
6;Рафиева, 70;27,440882;53,86295;9050;Каменная Горка;4856;Московский;50000;10,8197782844;1316;1;2;38;3,6375861597;16;2,7725887222;6;1,7917594692;0;1;1997;1;1
7;Тимошенко, 10;27,462181;53,90492;6533;Кунцевщина;534;Фрунзенский;57000;10,9508065468;1462;1;0;39;3,6635616461;16;2,7725887222;8,4;2,1282317058;0;0;2001;1;1
8;Чичерина, 12;27,564553;53,9132;1227;Площадь Победы;826;Центральный;55000;10,9150884642;2099;1;2;26,2;3,2657594108;16,2;2,7850112422;5,8;1,7578579176;1;1;2008;1;0
9;Р.Люксембург;27,514903;53,890627;3337;Институт Культуры;1743;Московский;40000;10,5966347331;1274;1;2;31,4;3,4468078929;16,3;2,7911651078;8;2,0794415417;0;1;1968;1;0
10;Грибной пер.,28/1;27,672989;53,883744;7562;Автозаводская;2318;Заводской;42000;10,6454248973;1243;1;2;33,8;3,5204608025;16,8;2,8213788864;7,2;1,974081026;0;0;1990;1;1
11;пер. Грибной, 28/1;27,672989;53,883744;7562;Автозаводская;2318;Заводской;42000;10,6454248973;1243;1;2;33,8;3,5204608025;16,8;2,8213788864;7,2;1,974081026;0;0;1990;1;1
12;Кольцова, 18/1;27,606477;53,953387;6386;Московская;3129;Советский;42000;10,6454248973;1250;1;2;33,6;3,514526067;16,9;2,8273136219;6,7;1,9021075264;1;0;1968;1;1
13;Герасименко, 41;27,680211;53,881467;8087;Могилёвская;2223;Заводской;40000;10,5966347331;1212;1;2;33;3,4965075615;17;2,8332133441;7,2;1,974081026;0;0;1974;1;1
14;Плеханова, 121;27,595536;53,858952;5295;Партизанская;2883;Заводской;52000;10,8589989976;1585;1;2;32,8;3,4904285154;17;2,8332133441;7,1;1,960094784;0;0;1975;1;1
15;Байкальская, 5;27,67324;53,874153;7935;Могилёвская;1374;Заводской;43000;10,6689553947;1303;1;2;33;3,4965075615;17;2,8332133441;7;1,9459101491;0;0;1989;1;1
16;Алтайская, 102/3;27,67245;53,872008;7985;Могилёвская;1139;Заводской;48000;10,7789562899;1455;1;2;33;3,4965075615;17;2,8332133441;7,1;1,960094784;0;0;1982;1;0
17;Якубова, 30;27,597898;53,854268;5834;Партизанская;3133;Ленинский;40000;10,5966347331;1176;1;2;34;3,5263605246;17;2,8332133441;17,2;2,8449093838;0;0;1980;1;0
18;пр-т Рокоссовского, 83;27,609181;53,861325;5506;Партизанская;2055;Ленинский;52000;10,8589989976;1529;1;2;34;3,5263605246;17;2,8332133441;7;1,9459101491;0;0;1973;1;1
19;пр-т Рокоссовского, 49;27,60239;53,867766;4664;Партизанская;1974;Ленинский;43000;10,6689553947;1303;1;2;33;3,4965075615;17;2,8332133441;7;1,9459101491;0;0;1976;1;1
20;пр-т Рокоссовского, 83;27,609181;53,861325;5506;Партизанская;2055;Ленинский;52000;10,8589989976;1529;1;2;34;3,5263605246;17;2,8332133441;7;1,9459101491;0;0;1973;1;1
21;Слободская, 55;27,438582;53,855622;9597;Каменная Горка;5666;Московский;48000;10,7789562899;1297;1;2;37;3,6109179126;17;2,8332133441;7;1,9459101491;0;0;1998;1;1
22;Слободская, 91;27,443918;53,848266;9784;Кунцевщина;6452;Московский;46500;10,7472075916;1409;1;2;33;3,4965075615;17;2,8332133441;7,2;1,974081026;0;0;1998;1;1
23;Воронянского, 52;27,556351;53,876191;2921;Институт Культуры;1516;Октябрьский;43900;10,6896695991;1318;1;2;33,3;3,505557397;17;2,8332133441;7,6;2,0281482473;1;0;1973;1;1
24;Запорожская, 28;27,627606;53,909312;4374;Парк Челюскинцев;1915;Партизанский;40000;10,5966347331;1290;1;2;31;3,4339872045;17;2,8332133441;7;1,9459101491;1;1;1971;1;1
25;Платонова, 35/2;27,593622;53,910405;2266;Площадь Якуба Коласа;891;Первомайский;56000;10,9331069697;1514;1;2;37;3,6109179126;17;2,8332133441;6;1,7917594692;0;1;1970;1;0
26;Толбухина, 5/а;27,611849;53,926043;4204;Парк Челюскинцев;213;Первомайский;49000;10,7995755771;1633;1;2;30;3,4011973817;17;2,8332133441;6;1,7917594692;1;0;1970;1;0
27;Волгоградсая, 57/а;27,60928;53,936396;4899;Парк Челюскинцев;1369;Первомайский;49000;10,7995755771;1531;1;2;32;3,4657359028;17;2,8332133441;7;1,9459101491;0;0;1970;1;0
28;пл. Независимости, 157;27,547242;53,895509;1218;Площадь Ленина;228;Первомайский;65000;11,0821425489;1970;1;2;33;3,4965075615;17;2,8332133441;7;1,9459101491;0;0;1973;1;1
29;Калиновского;27,635861;53,944378;6733;Восток;1474;Первомайский;53000;10,8780471925;1606;1;2;33;3,4965075615;17;2,8332133441;7,2;1,974081026;0;0;1900;0;0
30;М.Богдановича, 143;27,570347;53,925375;2626;Площадь Якуба Коласа;1369;Советский;57000;10,9508065468;1839;1;2;31;3,4339872045;17;2,8332133441;7;1,9459101491;0;1;1973;1;1
31;М.Богдановича, 133;27,568533;53,923371;2385;Площадь Якуба Коласа;1295;Советский;45000;10,7144177688;1406;1;2;32;3,4657359028;17;2,8332133441;6;1,7917594692;1;1;1967;1;0
32;Харьковская,86;27,501087;53,89623;4036;Пушкинская;1488;Фрунзенский;36000;10,4912742174;1200;1;0;30;3,4011973817;17;2,8332133441;5;1,6094379124;1;1;1968;1;0
33;Я.Марвра, 5;27,490334;53,903652;4686;Пушкинская;786;Фрунзенский;42000;10,6454248973;1200;1;0;35;3,5553480615;17;2,8332133441;8;2,0794415417;1;0;1974;1;1
34;М.Горецкого, 67;27,438942;53,889752;8169;Каменная Горка;1875;Фрунзенский;48000;10,7789562899;1455;1;0;33;3,4965075615;17;2,8332133441;7,2;1,974081026;1;0;1998;1;1
35;Фёдорова, 9;27,424595;53,883893;9219;Каменная Горка;2659;Фрунзенский;55000;10,9150884642;1410;1;0;39;3,6635616461;17;2,8332133441;9;2,1972245773;0;0;2000;1;1
36;Харьковская, 86;27,501087;53,89623;4036;Пушкинская;1488;Фрунзенский;36000;10,4912742174;1200;1;0;30;3,4011973817;17;2,8332133441;5;1,6094379124;1;1;1968;1;0
37;Я.Мавра, 5;27,490334;53,903652;4686;Пушкинская;786;Фрунзенский;42000;10,6454248973;1200;1;0;35;3,5553480615;17;2,8332133441;8;2,0794415417;1;0;1974;1;1
38;Притыцкого, 47;27,478072;53,905774;5500;Спортивная;333;Фрунзенский;64000;11,0666383623;1561;1;1;41;3,7135720667;17;2,8332133441;9,5;2,2512917986;0;0;2005;1;1
39;Червякова, 2/2;27,553701;53,920911;2139;Немига;1687;Центральный;47000;10,7579028807;1382;1;0;34;3,5263605246;17;2,8332133441;7,2;1,974081026;0;0;1984;1;1
40;Тарханова, 9/а;27,529231;53,917448;2722;Молодёжная;1268;Центральный;50000;10,8197782844;1562;1;2;32;3,4657359028;17;2,8332133441;7;1,9459101491;0;1;1968;1;0
41;Осипенко, 26;27,554941;53,925831;2657;Площадь Якуба Коласа;2184;Центральный;53000;10,8780471925;1828;1;2;29;3,36729583;17;2,8332133441;6;1,7917594692;0;1;1961;1;1
42;Заславская, 18/2;27,535996;53,911455;1977;Фрунзенская;706;Центральный;70000;11,156250521;2121;1;2;33;3,4965075615;17;2,8332133441;7,2;1,974081026;0;0;1986;0;1
43;пр-т Независимости, 87;27,605283;53,922973;3656;Академия наук;421;Первомайский;69000;11,1418617836;2226;1;2;31;3,4339872045;17;2,8332133441;6;1,7917594692;0;1;1961;1;0
44;Калиновского, 107;27,641862;53,944696;7044;Восток;1274;Первомайский;40000;10,5966347331;1201;1;2;33,3;3,505557397;17,1;2,8390784635;6,1;1,8082887712;1;0;1967;0;0
45;Одинцова, 3/2;27,459549;53,898427;6713;Кунцевщина;912;Фрунзенский;63000;11,0508900054;1575;1;1;40;3,6888794541;17,1;2,8390784635;9,5;2,2512917986;0;0;2004;1;1
46;Гурского, 33;27,492158;53,879493;5220;Институт Культуры;3240;Московский;74000;11,2118203722;1787;1;2;41,4;3,7232808808;17,1;2,8390784635;11;2,3978952728;0;1;2002;1;1
47;Щербакова, 4/2;27,609262;53,883707;3727;Тракторный завод;787;Партизанский;45000;10,7144177688;1376;1;2;32,7;3,4873750779;17,2;2,8449093838;6,2;1,8245492921;1;0;1970;1;0
48;Лермонтова, 49;27,512325;53,894697;3352;Молодёжная;1508;Московский;41000;10,6213273457;1362;1;2;30,1;3,4045251718;17,6;2,867898902;6;1,7917594692;1;0;1962;1;1
49;Асаналиева, 2;27,555004;53,852542;5545;Институт Культуры;3846;Октябрьский;45000;10,7144177688;1216;1;2;37;3,6109179126;17,6;2,867898902;8,1;2,0918640617;0;0;1982;0;1
50;Асаналиева, 2;27,555004;53,852542;5545;Институт Культуры;3846;Октябрьский;45000;10,7144177688;1216;1;2;37;3,6109179126;17,6;2,867898902;8,1;2,0918640617;0;0;1982;0;1
51;пр-т Газ-ты Правда, 46;27,474335;53,861771;7289;Кунцевщина;5089;Московский;55000;10,9150884642;1421;1;2;38,7;3,6558396;17,9;2,8848007128;8,6;2,1517622033;0;0;1998;1;1
52;Лынькова, 15/а;27,488888;53,927257;5525;Пушкинская;2055;Фрунзенский;55000;10,9150884642;1279;1;0;43;3,7612001157;17,9;2,8848007128;9,1;2,2082744135;0;0;1997;1;1
53;Крупской, 23;27,623806;53,859488;6250;Партизанская;1804;Заводской;60000;11,0020998412;1333;1;2;45;3,8066624898;18;2,8903717579;10,4;2,3418058061;0;1;2008;1;1
54;Варвашени, 8/1;27,673258;53,865685;8352;Могилёвская;435;Заводской;41000;10,6213273457;1206;1;2;34;3,5263605246;18;2,8903717579;7;1,9459101491;0;1;1970;1;1
55;Байкальская, 64;27,683418;53,865011;8974;Могилёвская;714;Заводской;39000;10,5713169251;1219;1;2;32;3,4657359028;18;2,8903717579;6,2;1,8245492921;1;0;1970;1;1
56;Одесская, 6;27,654798;53,869093;7116;Автозаводская;439;Заводской;58000;10,9681982895;1289;1;2;45;3,8066624898;18;2,8903717579;9;2,1972245773;0;0;2010;0;1
57;Я.Лучины, 8;27,568371;53,838379;7113;Институт Культуры;5607;Ленинский;59000;10,9852927229;1372;1;2;43;3,7612001157;18;2,8903717579;10;2,302585093;0;0;2004;1;1
58;Малинина, 8;27,620904;53,85585;6447;Партизанская;2241;Ленинский;49000;10,7995755771;1289;1;2;38;3,6375861597;18;2,8903717579;8;2,0794415417;1;0;1988;1;1
59;Малинина, 8;27,620904;53,85585;6447;Партизанская;2241;Ленинский;52000;10,8589989976;1405;1;2;37;3,6109179126;18;2,8903717579;7;1,9459101491;0;0;1988;1;1
60;Плеханова, 58/3;27,593065;53,864049;4714;Партизанская;2705;Ленинский;57000;10,9508065468;1500;1;2;38;3,6375861597;18;2,8903717579;7;1,9459101491;1;0;1983;0;1
61;Волоха, 53;27,509504;53,89423;3543;Молодёжная;1650;Московский;34000;10,4341158036;1133;1;2;30;3,4011973817;18;2,8903717579;6;1,7917594692;1;0;1963;1;0
62;Пуховичская, 18;27,549964;53,8497;5894;Институт Культуры;4089;Октябрьский;42500;10,6572593549;1328;1;2;32;3,4657359028;18;2,8903717579;6,4;1,8562979904;0;1;1968;1;1
63;пл. Независимости, 155/1;27,547242;53,895509;1218;Площадь Ленина;228;Первомайский;65000;11,0821425489;1776;1;2;36,6;3,6000482404;18;2,8903717579;9;2,1972245773;0;0;1980;1;0
64;Филимонова, 14;27,63534;53,910808;4902;Московская;1988;Первомайский;63000;11,0508900054;1416;1;2;44,5;3,7954891892;18;2,8903717579;9,2;2,2192034841;0;0;2004;1;1
65;Матусевича, 32;27,475233;53,916732;5894;Спортивная;1003;Фрунзенский;47500;10,76848499;1357;1;0;35;3,5553480615;18;2,8903717579;7,5;2,0149030205;0;0;1973;0;0
66;Д.Сердича, 74;27,489364;53,920937;5179;Пушкинская;1379;Фрунзенский;43000;10,6689553947;1254;1;0;34,3;3,5351453542;18;2,8903717579;6;1,7917594692;0;1;1973;1;1
67;Одоевского, 109;27,483552;53,901164;5129;Спортивная;815;Фрунзенский;52000;10,8589989976;1486;1;0;35;3,5553480615;18;2,8903717579;7,5;2,0149030205;0;0;1971;1;0
68;Шаранговича, 59-2;27,43516;53,879896;8663;Каменная Горка;2971;Фрунзенский;56500;10,9419959171;1256;1;0;45;3,8066624898;18;2,8903717579;9,5;2,2512917986;0;0;2003;1;1
69;Карастояновой, 25;27,564526;53,936073;3760;Площадь Якуба Коласа;2568;Центральный;55000;10,9150884642;1618;1;2;34;3,5263605246;18;2,8903717579;7;1,9459101491;1;0;1970;1;0
70;Орловская, 31;27,553072;53,931949;3347;Площадь Якуба Коласа;2684;Центральный;43000;10,6689553947;1433;1;2;30;3,4011973817;18;2,8903717579;6;1,7917594692;1;1;1969;1;1
71;Каростояновой, 25;27,564526;53,936073;3760;Площадь Якуба Коласа;2568;Центральный;55000;10,9150884642;1618;1;2;34;3,5263605246;18;2,8903717579;7;1,9459101491;1;0;1970;1;0
72;Филимонова, 8;27,633256;53,90867;4727;Парк Челюскинцев;2178;Партизанский;63000;11,0508900054;1370;1;2;46;3,8286413965;18;2,8903717579;9;2,1972245773;0;0;2000;0;0
73;пр-т Независимости, 155/1;27,650863;53,935124;6874;Восток;60;Первомайский;63000;11,0508900054;1721;1;2;36,6;3,6000482404;18;2,8903717579;9;2,1972245773;0;0;1980;1;1
74;Филимонова, 55/3;27,638332;53,925248;5618;Московская;778;Первомайский;60000;11,0020998412;1415;1;2;42,4;3,7471483622;18,2;2,9014215941;9,5;2,2512917986;0;1;2005;0;1
75;Натуралистов, 5;27,616413;53,928842;4632;Парк Челюскинцев;549;Первомайский;49000;10,7995755771;1541;1;2;31,8;3,4594662898;18,9;2,9391619221;5,7;1,7404661748;0;0;1963;1;0
76;Карбышева, 38;27,639176;53,949752;7309;Восток;1855;Первомайский;38000;10,5453414387;1166;1;2;32,6;3,4843122884;18,9;2,9391619221;6,1;1,8082887712;0;1;1967;1;1
77;Уборевича, 38;27,643856;53,843081;8492;Могилёвская;2868;Заводской;47000;10,7579028807;1424;1;2;33;3,4965075615;19;2,9444389792;6;1,7917594692;0;1;1972;1;1
78;пр-т Рокоссовского, 112;27,606585;53,856764;5844;Партизанская;2559;Ленинский;48000;10,7789562899;1333;1;2;36;3,5835189385;19;2,9444389792;6,5;1,8718021769;1;1;1978;1;1
79;Маяковского, 103;27,573931;53,864644;4256;Пролетарская;2981;Ленинский;84000;11,3385720778;1292;2;2;65;4,1743872699;19;2,9444389792;41;3,7135720667;0;0;2009;0;1
80;Кальварийская, 2;27,540182;53,905748;1471;Фрунзенская;68;Московский;65000;11,0821425489;2031;1;2;32;3,4657359028;19;2,9444389792;6,2;1,8245492921;0;1;1900;1;1
81;Кольцова, 12/2;27,609918;53,953212;6475;Московская;3019;Советский;46000;10,7363966755;1394;1;2;33;3,4965075615;19;2,9444389792;6;1,7917594692;1;1;1970;1;1
82;пр-т Машерова, 18;27,573294;53,915756;1674;Площадь Якуба Коласа;685;Советский;49000;10,7995755771;1531;1;2;32;3,4657359028;19;2,9444389792;5,8;1,7578579176;0;0;1967;1;1
83;Гая, 13;27,560726;53,926769;2723;Площадь Якуба Коласа;1930;Центральный;46500;10,7472075916;1500;1;2;31;3,4339872045;19;2,9444389792;6;1,7917594692;0;0;1963;1;0
84;Я.Коласа, 4;27,585735;53,9181;2352;Площадь Якуба Коласа;274;Советский;59000;10,9852927229;1405;1;2;42;3,7376696183;19;2,9444389792;10;2,302585093;1;1;1957;1;1
85;М.Богдановича, 52;27,566206;53,918827;1861;Площадь Якуба Коласа;1193;Советский;55000;10,9150884642;1852;1;2;29,7;3,3911470458;19,1;2,9496883351;6;1,7917594692;1;1;1961;1;0
86;Брилевская, 3;27,532789;53,87695;3398;Институт Культуры;1126;Октябрьский;68000;11,1272629842;1557;1;2;43,67;3,7766613675;19,3;2,9601050959;10,3;2,3321438952;1;1;1956;1;0
87;пер.Броневой, 6;27,579842;53,904841;1211;Площадь Победы;576;Партизанский;78000;11,2644641057;2091;1;2;37,3;3,6189933266;19,5;2,9704144656;8,5;2,1400661635;0;1;1958;1;0
88;Харьковская, 58;27,513493;53,900326;3175;Молодёжная;956;Фрунзенский;69000;11,1418617836;1345;1;0;51,3;3,9376907522;20,2;3,0056826044;11,2;2,4159137783;0;0;2007;0;1
89;Гаруна, 24;27,446209;53,922994;7913;Каменная Горка;1910;Фрунзенский;56500;10,9419959171;1202;1;2;47;3,8501476017;22;3,0910424534;9;2,1972245773;0;0;2010;0;1
90;Куприянова, 17;27,519431;53,898464;2811;Молодёжная;937;Московский;46000;10,7363966755;1211;2;2;38;3,6375861597;22,1;3,0955776085;7,4;2,0014800002;0;1;1966;1;1
91;Алибегова, 16;27,480668;53,872815;6245;Спортивная;3945;Московский;61500;11,0267924538;1281;1;2;48;3,8712010109;23;3,1354942159;9;2,1972245773;0;0;2005;1;1
92;Корженевского, 1-1;27,497107;53,848122;7363;Институт Культуры;5079;Октябрьский;54500;10,9059559807;1362;2;2;40;3,6888794541;23;3,1354942159;7;1,9459101491;1;0;1900;1;1
93;Почтовая, 1;27,710646;53,945788;10870;Уручье;1503;Первомайский;47000;10,7579028807;1306;2;2;36;3,5835189385;23;3,1354942159;6;1,7917594692;1;1;1970;1;0
94;Я.Коласа, 63;27,602192;53,934811;4476;Парк Челюскинцев;1371;Советский;53000;10,8780471925;1262;2;2;42;3,7376696183;23;3,1354942159;6;1,7917594692;0;1;1963;0;0
95;Лобанка, 81;27,431099;53,887199;8726;Каменная Горка;2195;Фрунзенский;75100;11,2265758378;1336;1;0;56,2;4,0289167569;23,5;3,1570004212;10,3;2,3321438952;0;1;2008;0;1
96;Ломоносова, 10;27,596228;53,932378;4031;Академия наук;1157;Советский;110000;11,6082356448;1630;2;2;67,5;4,2121275979;23,6;3,161246712;25,5;3,2386784522;1;1;1974;1;1
97;Герасименко, 29;27,682762;53,882555;8214;Могилёвская;2377;Заводской;54000;10,8967393255;1360;2;2;39,7;3,6813511877;23,7;3,1654750481;7,2;1,974081026;1;0;1983;1;1
98;Кольцова, 38;27,601267;53,953418;6241;Московская;3296;Советский;54900;10,9132686275;1366;2;2;40,2;3,6938669956;23,7;3,1654750481;6,2;1,8245492921;1;1;1969;1;1
99;Голодеда, 1;27,650917;53,841562;8919;Могилёвская;2710;Заводской;55000;10,9150884642;1447;2;2;38;3,6375861597;24;3,1780538303;6,2;1,8245492921;0;0;1900;1;1
100;пр-т Рокоссовского, 53;27,603782;53,86741;4748;Партизанская;1910;Ленинский;53000;10,8780471925;1359;2;2;39;3,6635616461;24;3,1780538303;6,2;1,8245492921;1;0;1988;1;0
101;Калиновского, 83;27,637676;53,944808;6852;Восток;1434;Первомайский;53700;10,8911682805;1377;2;2;39;3,6635616461;24;3,1780538303;6,2;1,8245492921;0;0;1976;1;1
102;Чорного, 10/а;27,602659;53,925417;3707;Академия наук;439;Первомайский;55000;10,9150884642;1447;2;2;38;3,6375861597;24,2;3,1863526332;5,7;1,7404661748;1;1;1956;0;1
103;Холмогорская, 53;27,652399;53,889529;6095;Партизанская;2169;Партизанский;64000;11,0666383623;1684;1;2;38;3,6375861597;24,6;3,2027464429;7;4,6249728133;0;1;2004;0;0
104;Ванеева, 14;27,613583;53,882895;4013;Тракторный завод;805;Партизанский;85000;11,3504065355;1476;3;2;57,6;4,0535225677;24,7;3,2068032436;24,2;3,1863526332;0;0;1900;0;1
105;Притыцкого, 8;27,50186;53,911116;4049;Пушкинская;355;Фрунзенский;54000;10,8967393255;1216;2;0;44,4;3,7932394694;24,8;3,2108436532;8,2;2,1041341543;1;1;1900;1;1
106;пр-т газ-ты Известия, 15;27,484621;53,866402;6441;Институт Культуры;4254;Ленинский;47000;10,7579028807;603;2;2;78;4,3567088267;25;3,2188758249;11;2,3978952728;0;1;1990;1;1
107;пер. Броневой, 12;27,582034;53,906029;1384;Площадь Победы;571;Партизанский;65000;11,0821425489;1625;2;2;40;3,6888794541;25;3,2188758249;5;1,6094379124;1;1;1967;1;0
108;Калиновского, 101;27,641233;53,943419;6919;Восток;1173;Первомайский;75000;11,2252433925;1645;2;2;45,6;3,8199077165;25;3,2188758249;8;2,0794415417;0;1;1969;1;1
109;Славинского, 7/2;27,635205;53,941002;6446;Восток;1259;Первомайский;54000;10,8967393255;1317;2;2;41;3,7135720667;25;3,2188758249;6;1,7917594692;1;0;1968;1;1
110;Калиновского, 97;27,640245;53,944532;6954;Восток;1312;Первомайский;54000;10,8967393255;1317;2;2;41;3,7135720667;25,5;3,2386784522;6,3;1,8405496334;0;0;1978;1;1
111;Шабаны, 3;27,692096;53,835096;11338;Могилёвская;3196;Заводской;48000;10,7789562899;1171;2;2;41;3,7135720667;26;3,258096538;2;0,6931471806;1;0;1964;1;1
112;Короля, 17;27,539939;53,90317;1439;Фрунзенская;252;Московский;71000;11,170435156;1690;2;2;42;3,7376696183;26;3,258096538;6,4;1,8562979904;0;1;1961;1;0
113;Брилевская, 17;27,530911;53,875384;3611;Институт Культуры;1337;Октябрьский;54000;10,8967393255;1317;2;2;41;3,7135720667;26;3,258096538;6;1,7917594692;0;1;1967;1;1
114;Каховская, 30;27,551258;53,927931;2934;Немига;2473;Центральный;54000;10,8967393255;1286;2;2;42;3,7376696183;26;3,258096538;6;1,7917594692;1;1;1900;1;1
115;Волгоградская, 49;27,611526;53,936455;4999;Парк Челюскинцев;1356;Первомайский;53800;10,8930287461;1312;2;2;41;3,7135720667;26,2;3,2657594108;6;1,7917594692;1;0;1964;1;0
116;Грекова, 3;27,627471;53,867177;5803;Партизанская;919;Заводской;45000;10,7144177688;1184;2;2;38;3,6375861597;27;3,295836866;5;1,6094379124;1;1;1958;1;0
117;Челюскинцев, 5;27,653944;53,86869;7092;Автозаводская;383;Заводской;50000;10,8197782844;1163;2;2;43;3,7612001157;27;3,295836866;6;1,7917594692;1;1;1957;0;0
118;Уманская, 59;27,500377;53,875597;5001;Институт Культуры;2865;Московский;55000;10,9150884642;1279;2;2;43;3,7612001157;27;3,295836866;6;1,7917594692;0;0;1964;1;0
119;Одоевского, 69;27,499443;53,90274;4087;Пушкинская;757;Фрунзенский;53500;10,8874369329;1216;2;0;44;3,7841896339;27;3,295836866;6;1,7917594692;0;0;1900;1;1
120;К.Либкнехта, 94;27,519116;53,894787;2920;Молодёжная;1337;Московский;52000;10,8589989976;1238;2;2;42;3,7376696183;27;3,295836866;5,6;1,7227665977;0;0;1961;1;0
121;Лынькова, 109-2;27,4697;53,928238;6687;Спортивная;2329;Фрунзенский;54900;10,9132686275;1177;2;0;46,66;3,8428872666;27,01;3,2962071678;9,11;2,2093727113;1;0;1984;1;1
122;пр-т Независимости, 85 - Б;27,604546;53,925147;3777;Академия наук;495;Первомайский;131000;11,7829526022;1650;1;2;79,4;4,3744983683;27,7;3,3214324132;17,1;2,8390784635;0;1;2009;0;1
123;Селицкого, 93;27,703603;53,842757;11401;Могилёвская;2872;Заводской;50000;10,8197782844;1064;2;2;47;3,8501476017;28;3,3322045102;7,2;1,974081026;0;0;1990;1;1
124;Жилуновича, 23;27,629923;53,873611;5478;Партизанская;195;Заводской;50000;10,8197782844;1087;2;2;46;3,8286413965;28;3,3322045102;6;1,7917594692;1;0;1966;1;0
125;Плеханова, 32-2;27,612083;53,865175;5274;Партизанская;1613;Заводской;76500;11,2450460198;1471;2;2;52;3,9512437186;28;3,3322045102;9,33;2,2332350149;0;0;1978;1;1
126;пр-т Рокоссовского, 132;27,606801;53,855224;6000;Партизанская;2691;Ленинский;60000;11,0020998412;1277;2;2;47;3,8501476017;28;3,3322045102;7,2;1,974081026;0;0;1974;1;1
127;пр-т Рокоссовского, 49;27,60239;53,867766;4664;Партизанская;1974;Ленинский;65900;11,0958937205;1402;2;2;47;3,8501476017;28;3,3322045102;7;1,9459101491;0;0;1980;1;1
128;Горовца, 34/2;27,611921;53,867448;5072;Партизанская;1455;Ленинский;62000;11,034889664;1127;2;2;55;4,0073331852;28;3,3322045102;9,5;2,2512917986;0;0;1978;1;1
129;Семенова, 24;27,57677;53,870633;3649;Пролетарская;2291;Ленинский;52000;10,8589989976;1209;2;2;43;3,7612001157;28;3,3322045102;6;1,7917594692;0;0;1960;1;0
130;пр-т Газ-ты Звезда, 23;27,471955;53,867028;7073;Кунцевщина;4485;Московский;62000;11,034889664;1319;2;2;47;3,8501476017;28;3,3322045102;7;1,9459101491;0;0;1979;1;1
131;Космонавтов, 13/1;27,466735;53,852467;8335;Кунцевщина;6006;Московский;72000;11,184421398;1371;2;2;52,5;3,9608131696;28;3,3322045102;9,3;2,2300144002;1;0;1987;1;1
132;пр-т Газеты Звезда, 56;27,458004;53,858808;8344;Кунцевщина;5251;Московский;55000;10,9150884642;1122;2;2;49;3,8918202981;28;3,3322045102;7,5;2,0149030205;0;0;1991;1;1
133;Казинца, 76;27,501869;53,850035;7011;Институт Культуры;4731;Октябрьский;54500;10,9059559807;1160;2;2;47;3,8501476017;28;3,3322045102;7;1,9459101491;0;0;1976;1;1
134;Кнорина, 19;27,61343;53,935866;5032;Московская;1261;Первомайский;53000;10,8780471925;1205;2;2;44;3,7841896339;28;3,3322045102;6;1,7917594692;1;0;2010;1;0
135;Логойский тр-т, 19/1;27,611957;53,946371;5895;Московская;2271;Советский;75000;11,2252433925;1531;2;2;49;3,8918202981;28;3,3322045102;9;2,1972245773;0;1;1977;1;1
136;Бельского, 43;27,48277;53,898056;5200;Спортивная;1148;Фрунзенский;70000;11,156250521;1400;2;0;50;3,9120230054;28;3,3322045102;10;2,302585093;1;1;1975;1;1
137;Одоевского, 71;27,499524;53,901859;4082;Пушкинская;854;Фрунзенский;53000;10,8780471925;1233;2;0;43;3,7612001157;28;3,3322045102;6;1,7917594692;1;0;1900;1;0
138;Нововиленская, 24/В;27,540119;53,933375;3738;Фрунзенская;3108;Центральный;50000;10,8197782844;1316;2;2;38;3,6375861597;28;3,3322045102;5;1,6094379124;1;1;1960;1;0
139;Осипенко, 14;27,551447;53,925884;2711;Немига;2246;Центральный;60000;11,0020998412;1364;2;2;44;3,7841896339;28;3,3322045102;6;1,7917594692;0;0;1964;1;1
140;Гая, 3;27,557348;53,923763;2406;Площадь Якуба Коласа;1935;Центральный;57000;10,9508065468;1163;2;2;49;3,8918202981;28;3,3322045102;6;1,7917594692;1;0;1965;1;0
141;Старовиленская, 16;27,556118;53,909355;872;Немига;426;Центральный;175000;12,0725412529;3431;2;2;51;3,9318256327;28;3,3322045102;8;2,0794415417;0;1;1984;1;0
142;бульв. Шевченко, 12;27,556342;53,925433;2599;Площадь Якуба Коласа;2082;Центральный;54500;10,9059559807;1267;2;2;43;3,7612001157;28;3,3322045102;6,1;1,8082887712;0;1;1900;1;1
143;Уручская, 4;27,695617;53,950441;10259;Уручье;751;Первомайский;65000;11,0821425489;1354;2;2;48;3,8712010109;28;3,3322045102;7;1,9459101491;0;0;1979;1;1
144;Герасименко, 27;27,684712;53,881706;8363;Могилёвская;2321;Заводской;54500;10,9059559807;1173;2;2;46,47;3,8388069431;28,2;3,3393219779;7,16;1,968509981;0;0;1979;1;1
145;Якубовского, 50;27,447556;53,894384;7536;Кунцевщина;1364;Фрунзенский;73000;11,1982147201;1495;2;0;48,83;3,8883448781;28,34;3,3442742343;7,2;1,974081026;0;0;1986;1;1
146;Герасименко, 1;27,690443;53,871679;9081;Могилёвская;1539;Заводской;54500;10,9059559807;1160;2;2;47;3,8501476017;28,5;3,3499040873;7,2;1,974081026;1;0;1980;1;1
147;Илимская, 29;27,683328;53,890139;8067;Могилёвская;3208;Заводской;55000;10,9150884642;1171;2;2;46,95;3,8490832057;28,56;3,3520071375;7,2;1,974081026;0;0;1900;1;1
148;Маяковского, 158;27,57023;53,865871;4082;Пролетарская;2932;Ленинский;54500;10,9059559807;1087;2;2;50,14;3,9148190927;28,56;3,3520071375;6,45;1,8640801308;1;1;1957;1;0
149;Железнодорожная, 126/б;27,503162;53,876212;4814;Институт Культуры;2670;Московский;53500;10,8874369329;1173;2;2;45,6;3,8199077165;28,6;3,3534067178;5,9;1,7749523509;0;0;1963;1;1
150;Уманская, 65;27,501428;53,874832;4997;Институт Культуры;2838;Московский;55000;10,9150884642;1279;2;2;43;3,7612001157;28,6;3,3534067178;5,6;1,7227665977;1;0;1900;1;0
151;Калиновского, 91;27,638637;53,944696;6889;Восток;1386;Первомайский;54000;10,8967393255;1227;2;2;44;3,7841896339;28,6;3,3534067178;6,2;1,8245492921;0;0;1967;1;1
152;Кедышко, 12;27,619745;53,929749;4865;Московская;538;Первомайский;54500;10,9059559807;1256;2;2;43,4;3,7704594411;28,7;3,3568971228;6;1,7917594692;1;0;1964;1;1
153;Берута, 6;27,500629;53,907254;4047;Пушкинская;328;Фрунзенский;53000;10,8780471925;1199;2;0;44,2;3,7887247891;28,7;3,3568971228;6,2;1,8245492921;1;0;1900;0;0
154;Воронянского, 21;27,551096;53,878102;2777;Институт Культуры;1130;Октябрьский;110000;11,6082356448;1957;2;2;56,2;4,0289167569;28,9;3,3638415951;10;2,302585093;0;0;2000;0;1
155;пр-т Рокоссовского, 73;27,606199;53,865605;5004;Партизанская;1879;Ленинский;55000;10,9150884642;1250;2;2;44;3,7841896339;29;3,36729583;6,1;1,8082887712;1;0;1900;1;0
156;Волоха, 15;27,518631;53,896299;2908;Молодёжная;1183;Московский;54000;10,8967393255;1256;2;2;43;3,7612001157;29;3,36729583;5,6;1,7227665977;0;1;2005;1;1
157;пер. Вузовский, 16;27,561391;53,882364;2213;Первомайская;1416;Октябрьский;53500;10,8874369329;1244;2;2;43,01;3,7614326468;29;3,36729583;6;1,7917594692;1;1;1960;1;1
158;пер. Козлова, 22;27,598644;53,900236;2418;Пролетарская;1341;Партизанский;54900;10,9132686275;1274;2;2;43,1;3,7635229971;29;3,36729583;6;1,7917594692;0;1;1965;1;1
159;Калиновского, 18;27,635933;53,94237;6583;Восток;1315;Первомайский;63000;11,0508900054;1432;2;2;44;3,7841896339;29;3,36729583;6;1,7917594692;0;0;1968;1;1
160;50 лет Победы, 11;27,715515;53,947632;11247;Уручье;1835;Первомайский;87000;11,3736633976;1445;2;2;60,2;4,0976723523;29;3,36729583;9,5;2,2512917986;0;1;2001;1;1
161;Дунина-Марцинкевича, 4/2;27,487603;53,905955;4879;Спортивная;519;Фрунзенский;68000;11,1272629842;1360;2;0;50;3,9120230054;29;3,36729583;9;2,1972245773;0;0;1980;1;1
162;Тимирязева, 86;27,484226;53,931689;6042;Спортивная;2607;Центральный;110000;11,6082356448;2000;2;2;55;4,0073331852;29;3,36729583;8,5;2,1400661635;0;0;2001;1;1
163;Лермонтова, 20/а;27,517059;53,889523;3259;Институт Культуры;1574;Московский;55000;10,9150884642;1279;2;2;43;3,7612001157;29,2;3,3741687093;6,2;1,8245492921;1;0;1960;1;1
164;Прушинских, 46;27,577704;53,835994;7438;Партизанская;5542;Ленинский;62800;11,0477103525;1256;2;2;50;3,9120230054;29,3;3,377587516;9;2,1972245773;0;0;2002;1;1
165;Аэродромная, 5;27,537711;53,873845;3533;Институт Культуры;1368;Октябрьский;55000;10,9150884642;1238;2;2;44,41;3,7934646693;29,3;3,377587516;5,88;1,7715567619;0;1;1967;1;1
166;Одинцова, 23/1;27,447287;53,8983;7515;Кунцевщина;970;Фрунзенский;66000;11,097410021;1320;2;0;50;3,9120230054;29,31;3,3779287547;7,14;1,9657127764;0;0;1983;1;1
167;Брестская, 68/3;27,519287;53,853179;6128;Институт Культуры;3905;Октябрьский;55000;10,9150884642;1100;2;2;50;3,9120230054;29,4;3,3809946743;7,2;1,974081026;0;0;1978;1;1
168;Лынькова, 43;27,476761;53,92898;6312;Спортивная;2311;Фрунзенский;54900;10,9132686275;1009;2;0;54,4;3,9963641539;29,5;3,3843902633;8,3;2,1162555148;1;0;1978;1;1
169;Щербакова, 24;27,605058;53,886345;3336;Тракторный завод;739;Партизанский;55000;10,9150884642;1168;2;2;47,1;3,852273001;29,6;3,3877743613;9,1;2,2082744135;1;1;1947;1;0
170;Лермонтова, 24;27,515352;53,89025;3326;Институт Культуры;1702;Московский;55000;10,9150884642;1369;2;2;40,18;3,6933693594;29,63;3,3887873616;4,77;1,5623463049;0;1;1958;1;1
171;Цнянская, 25;27,584666;53,925969;3026;Академия наук;1033;Советский;79900;11,2885311318;1658;2;2;48,18;3,8749439972;29,68;3,3904734183;6,59;1,8855533485;1;1;1970;1;1
172;Семенова, 26;27,577426;53,870686;3655;Пролетарская;2273;Ленинский;55000;10,9150884642;1242;2;2;44,3;3,7909846771;29,7;3,3911470458;5,6;1,7227665977;1;1;1959;1;1
173;М.Богдановича;27,57474;53,929129;3101;Площадь Якуба Коласа;1581;Советский;75400;11,230562554;1300;1;2;58;4,0604430105;29,7;3,3911470458;11,4;2,4336133554;0;0;2010;0;1
174;Рыбалко, 8;27,595635;53,886568;2817;Пролетарская;714;Ленинский;80000;11,2897819137;1597;2;2;50,1;3,9140210081;29,8;3,3945083935;7,5;2,0149030205;0;1;1988;1;1
175;пр-т Рокоссовского, 110;27,606711;53,85738;5789;Партизанская;2499;Ленинский;55000;10,9150884642;1100;2;2;50;3,9120230054;30;3,4011973817;6,7;1,9021075264;0;1;1971;1;1
176;Есенина, 39;27,444331;53,855139;9312;Кунцевщина;5690;Московский;58000;10,9681982895;1234;2;2;47;3,8501476017;30;3,4011973817;7;1,9459101491;0;0;1990;1;1
177;Серова, 31;27,552803;53,850688;5763;Институт Культуры;4014;Октябрьский;49700;10,8137602121;1156;2;2;43;3,7612001157;30;3,4011973817;6;1,7917594692;0;0;1967;1;0
178;Кнорина, 8/а;27,612541;53,932119;4690;Парк Челюскинцев;871;Первомайский;57500;10,9595402268;1278;2;2;45;3,8066624898;30;3,4011973817;6;1,7917594692;0;0;1962;1;1
179;Филимонова, 47/а;27,635709;53,923318;5369;Московская;756;Первомайский;85000;11,3504065355;1574;2;2;54;3,9889840466;30;3,4011973817;10;2,302585093;0;1;1996;1;1
180;М.Богдановича, 112;27,580327;53,933624;3687;Академия наук;1771;Советский;90000;11,4075649493;1689;2;2;53,3;3,9759363312;30;3,4011973817;9;2,1972245773;0;1;1997;1;1
181;Корш-Саблина, 9;27,59099;53,936015;4206;Академия наук;1633;Советский;129000;11,7675676833;2179;2;2;59,2;4,0809215419;30;3,4011973817;11,9;2,4765384001;1;1;2009;0;1
182;пр-т Пушкина, 85/1;27,500979;53,923063;4607;Пушкинская;1535;Фрунзенский;59000;10,9852927229;1180;2;0;50;3,9120230054;30;3,4011973817;8,4;2,1282317058;0;0;1977;1;1
183;Бурдейного, 25;27,44744;53,903838;7494;Кунцевщина;506;Фрунзенский;66000;11,097410021;1320;2;0;50;3,9120230054;30;3,4011973817;7,2;1,974081026;0;0;1981;0;0
184;Притыцкого, 107;27,430156;53,905239;8629;Каменная Горка;499;Фрунзенский;85000;11,3504065355;1466;2;0;58;4,0604430105;30;3,4011973817;11;2,3978952728;0;0;2010;0;1
185;Осипенко, 27;27,554752;53,926266;2706;Площадь Якуба Коласа;2219;Центральный;49000;10,7995755771;1140;2;2;43;3,7612001157;30;3,4011973817;6;1,7917594692;1;0;1963;0;0
186;Коммунистическая, 16;27,567508;53,911025;1040;Площадь Победы;544;Центральный;148000;11,9049675527;2387;3;2;62;4,127134385;30;3,4011973817;18,2;2,9014215941;1;1;1954;1;0
187;бульв. Шевченко, 24;27,556486;53,927968;2877;Площадь Якуба Коласа;2231;Центральный;53000;10,8780471925;1178;2;2;45;3,8066624898;30;3,4011973817;5,8;1,7578579176;1;1;1965;1;1
188;Берута, 18;27,503809;53,901297;3803;Пушкинская;1000;Фрунзенский;65000;11,0821425489;1477;2;0;44;3,7841896339;30,3;3,4111477125;5,7;1,7404661748;0;0;1965;1;1
189;Р.Люксембург, 97;27,521883;53,891593;2875;Институт Культуры;1357;Московский;55000;10,9150884642;1310;2;2;42;3,7376696183;30,5;3,4177266836;6,2;1,8245492921;0;1;1961;1;1
190;Кедышко, 15/а;27,616772;53,93091;4800;Московская;767;Первомайский;53000;10,8780471925;1152;2;2;46;3,8286413965;30,5;3,4177266836;5,6;1,7227665977;0;0;1962;1;1
191;Артиллеристов, 18;27,560115;53,883468;2093;Институт Культуры;1326;Октябрьский;52000;10,8589989976;1128;2;2;46,1;3,83081295;30,6;3,421000009;5,9;1,7749523509;0;0;1900;0;1
192;пер. Уральский, 5;27,604744;53,899997;2818;Тракторный завод;1265;Партизанский;53500;10,8874369329;1166;2;2;45,89;3,8262472284;30,6;3,421000009;6;1,7917594692;0;0;1964;1;1
193;Калиновского, 35;27,624336;53,948973;6606;Московская;2330;Первомайский;53000;10,8780471925;1178;2;2;45;3,8066624898;30,6;3,421000009;5,8;1,7578579176;0;0;1900;1;1
194;Гая, 32;27,562217;53,933815;3505;Площадь Якуба Коласа;2437;Центральный;53000;10,8780471925;1186;2;2;44,7;3,7999735016;30,7;3,4242626546;5,9;1,7749523509;0;0;1962;1;1
195;Берута, 9-4;27,50795;53,903334;3532;Пушкинская;974;Фрунзенский;54500;10,9059559807;1217;2;0;44,8;3,8022081394;30,9;3,4307561839;6;1,7917594692;0;0;1967;1;1
196;Крупской, 6/а;27,628145;53,859047;6475;Автозаводская;1707;Заводской;68000;11,1272629842;1115;2;2;61;4,1108738642;31;3,4339872045;9,5;2,2512917986;1;0;2010;0;1
197;Прушинских, 28;27,585654;53,834766;7662;Партизанская;5353;Ленинский;75000;11,2252433925;1293;2;2;58;4,0604430105;31;3,4339872045;9,8;2,2823823857;1;0;2003;1;1
198;Авроровская, 8;27,566035;53,861363;4555;Институт Культуры;3219;Ленинский;85000;11,3504065355;1417;2;2;60;4,0943445622;31;3,4339872045;9;2,1972245773;0;0;2010;1;1
199;Волгоградсая, 9;27,622404;53,931864;5149;Московская;535;Первомайский;51000;10,8395809117;1214;2;2;42;3,7376696183;31;3,4339872045;6;1,7917594692;1;0;1961;1;0
200;Волгоградская, 9;27,622404;53,931864;5149;Московская;535;Первомайский;51000;10,8395809117;1214;2;2;42;3,7376696183;31;3,4339872045;6;1,7917594692;1;0;1961;1;0
201;пр-т Независимости, 76;27,604555;53,922231;3567;Академия наук;362;Советский;83000;11,3265958868;1766;2;2;47;3,8501476017;31;3,4339872045;8;2,0794415417;0;1;1961;1;1
202;Я.Колас, 63;27,554914;53,906077;621;Немига;71;Советский;54000;10,8967393255;1256;2;2;43;3,7612001157;31;3,4339872045;6,1;1,8082887712;0;1;1963;0;0
203;Бирюзова, 11/а;27,514211;53,91111;3271;Молодёжная;799;Фрунзенский;69000;11,1418617836;1353;2;0;51;3,9318256327;31;3,4339872045;7,2;1,974081026;0;1;1984;1;1
204;Панченко, 74;27,416825;53,892797;9556;Каменная Горка;2042;Фрунзенский;72000;11,184421398;1180;2;0;61;4,1108738642;31;3,4339872045;9,5;2,2512917986;0;0;2008;0;1
205;пр-т Пушкина, 3;27,496515;53,896416;4328;Пушкинская;1447;Фрунзенский;55000;10,9150884642;1168;2;0;47,1;3,852273001;31;3,4339872045;7,6;2,0281482473;1;0;1973;1;1
206;Гая, 3;27,557348;53,923763;2406;Площадь Якуба Коласа;1935;Центральный;53000;10,8780471925;1218;2;2;43,5;3,7727609381;31;3,4339872045;6,5;1,8718021769;0;0;1963;1;1
207;Каховская, 70;27,560717;53,928742;2942;Площадь Якуба Коласа;2074;Центральный;54000;10,8967393255;1200;2;2;45;3,8066624898;31;3,4339872045;7,5;2,0149030205;1;0;1965;1;0
208;Кальварийская, 52;27,512127;53,908533;3330;Молодёжная;785;Фрунзенский;54000;10,8967393255;1253;2;0;43,1;3,7635229971;31,3;3,4436180975;5,6;1,7227665977;0;1;1965;1;1
209;пр-т Независимости, 60;27,591502;53,918779;2669;Площадь Якуба Коласа;598;Советский;190000;12,1547793511;3405;2;2;55,8;4,0217738694;31,4;3,4468078929;8,7;2,1633230257;0;1;1959;1;1
210;Надеждинская, 15/2;27,565963;53,878134;2696;Первомайская;1770;Ленинский;55000;10,9150884642;1170;2;2;47;3,8501476017;31,5;3,4499875458;6,12;1,8115620965;0;0;1969;1;1
211;пр-т Рокоссовского, 109;27,612236;53,858325;5894;Партизанская;2209;Ленинский;54000;10,8967393255;1144;2;2;47,2;3,8543938926;31,7;3,4563166809;6,2;1,8245492921;1;0;1970;0;1
212;Якубовского, 21;27,457357;53,901175;6844;Кунцевщина;575;Фрунзенский;73000;11,1982147201;1351;2;0;54,03;3,9895394479;31,7;3,4563166809;9,4;2,2407096893;1;0;1983;1;1
213;Казинца, 78;27,502219;53,848515;7139;Институт Культуры;4863;Октябрьский;54000;10,8967393255;1116;2;2;48,4;3,8794998137;31,8;3,4594662898;7,4;2,0014800002;0;0;1976;1;1
214;Калиновского, 57;27,630471;53,946779;6679;Восток;1911;Первомайский;54000;10,8967393255;1144;2;2;47,2;3,8543938926;31,8;3,4594662898;6;1,7917594692;1;0;1968;1;1
215;Бельского, 27;27,482681;53,89987;5192;Спортивная;947;Фрунзенский;55000;10,9150884642;1136;2;0;48,4;3,8794998137;31,8;3,4594662898;7,5;2,0149030205;1;0;1971;1;1
216;Голодеда, 39-2;27,623725;53,83763;8248;Автозаводская;3827;Заводской;54500;10,9059559807;1160;2;2;47;3,8501476017;32;3,4657359028;6,2;1,8245492921;1;0;1967;1;1
217;пр-т Независимости, 16;27,555013;53,898193;638;Купаловская;526;Ленинский;105000;11,5617156291;1750;2;2;60;4,0943445622;32;3,4657359028;10;2,302585093;1;1;1954;1;1
218;Рокоссовского, 91;27,610286;53,860332;5638;Партизанская;2096;Ленинский;54000;10,8967393255;1149;2;2;47;3,8501476017;32;3,4657359028;6;1,7917594692;1;0;1975;1;1
219;Плеханова, 79;27,610601;53,861591;5534;Партизанская;1973;Ленинский;54700;10,9096189884;1094;2;2;50;3,9120230054;32;3,4657359028;6,2;1,8245492921;0;0;1971;1;1
220;пр-т Рокоссовского, 57;27,604815;53,867304;4797;Партизанская;1855;Ленинский;55000;10,9150884642;1170;2;2;47;3,8501476017;32;3,4657359028;6,2;1,8245492921;1;0;1900;1;1
221;пер. Корженевского, 2/а;27,525809;53,844696;6821;Институт Культуры;4694;Октябрьский;82000;11,3144745262;1421;2;2;57,7;4,0552571735;32;3,4657359028;10;2,302585093;0;0;2006;1;1
222;Корженевского, 15;27,499174;53,84723;7368;Институт Культуры;5089;Октябрьский;54000;10,8967393255;1080;2;2;50;3,9120230054;32;3,4657359028;7,5;2,0149030205;1;0;1900;1;1
223;Партизанский пр-т, 45;27,605858;53,879854;3809;Тракторный завод;1269;Партизанский;70000;11,156250521;1346;2;2;52;3,9512437186;32;3,4657359028;9;2,1972245773;0;1;2002;1;0
224;пр-т Машерова, 51;27,52871;53,911232;2388;Молодёжная;620;Советский;69000;11,1418617836;1500;2;2;46;3,8286413965;32;3,4657359028;7,2;1,974081026;0;1;1961;1;0
225;Брикета, 38;27,410546;53,908469;9930;Каменная Горка;1771;Фрунзенский;60000;11,0020998412;1000;3;0;60;4,0943445622;32;3,4657359028;10;2,302585093;0;0;1982;1;1
226;Якубовского, 21;27,457357;53,901175;6844;Кунцевщина;575;Фрунзенский;62500;11,0429218357;1157;2;0;54;3,9889840466;32;3,4657359028;9,3;2,2300144002;0;0;1983;1;1
227;Глебки, 84;27,475305;53,919023;5964;Спортивная;1242;Фрунзенский;54500;10,9059559807;1144;2;0;47,63;3,8634628148;32;3,4657359028;6,2;1,8245492921;1;0;1973;1;1
228;пл. Победителей, 43/2;27,535052;53,91538;2281;Фрунзенская;1143;Центральный;120000;11,6952470218;2222;2;2;54;3,9889840466;32;3,4657359028;8;2,0794415417;1;1;1982;1;1
229;Голодеда, 31;27,632223;53,839378;8373;Автозаводская;3444;Заводской;58000;10,9681982895;1155;2;2;50,2;3,9160150267;32,1;3,4688560301;7,1;1,960094784;0;1;1974;1;1
230;Глебки, 70;27,474039;53,918588;6028;Спортивная;1223;Фрунзенский;54000;10,8967393255;1137;2;0;47,5;3,860729711;32,1;3,4688560301;6,2;1,8245492921;1;0;1900;1;1
231;Каховская, 58;27,557384;53,928811;2963;Площадь Якуба Коласа;2243;Центральный;54500;10,9059559807;1230;2;2;44,3;3,7909846771;32,52;3,4818552847;5,8;1,7578579176;0;1;1962;0;1
232;Васнецова, 15;27,618596;53,871111;5079;Партизанская;863;Заводской;51000;10,8395809117;1092;2;2;46,7;3,8437441647;32,8;3,4904285154;6;1,7917594692;1;0;1962;1;1
233;Харьковская, 80/1;27,502749;53,897122;3913;Пушкинская;1414;Фрунзенский;49000;10,7995755771;1089;2;2;45;3,8066624898;32,8;3,4904285154;6;1,7917594692;1;0;1965;1;0
234;Партизанский пр-т, 72;27,640982;53,871185;6228;Автозаводская;530;Заводской;67000;11,1124478984;1314;2;2;51;3,9318256327;33;3,4965075615;8;2,0794415417;0;1;1970;1;0
235;Народная,34;27,622;53,873187;5095;Партизанская;555;Заводской;53500;10,8874369329;1189;2;2;45;3,8066624898;33;3,4965075615;6;1,7917594692;0;0;1964;1;1
236;Д.Сердича, 66;27,489319;53,919643;5126;Пушкинская;1248;Фрунзенский;52000;10,8589989976;1156;2;0;45;3,8066624898;33;3,4965075615;6;1,7917594692;1;0;1968;1;1
237;Нововиленская, 13/А;27,539625;53,929813;3389;Фрунзенская;2712;Центральный;150000;11,9183905731;2239;2;2;67;4,2046926194;33;3,4965075615;10;2,302585093;1;1;2008;1;0
238;В.Хоружей, 33;27,555103;53,92265;2307;Немига;1881;Центральный;53000;10,8780471925;1152;2;2;46;3,8286413965;33;3,4965075615;6;1,7917594692;1;0;1900;1;0
239;Карастояновой, 27;27,56529;53,936089;3764;Площадь Якуба Коласа;2546;Центральный;53500;10,8874369329;1189;2;2;45;3,8066624898;33;3,4965075615;6;1,7917594692;0;0;1900;1;0
240;Осипенко, 33;27,557717;53,926711;2729;Площадь Якуба Коласа;2083;Центральный;54000;10,8967393255;1200;2;2;45;3,8066624898;33;3,4965075615;5,7;1,7404661748;0;0;1963;1;1
241;Казинца, 122;27,50283;53,840829;7848;Институт Культуры;5595;Октябрьский;54900;10,9132686275;1036;2;2;53;3,9702919136;33,5;3,5115454388;8;2,0794415417;0;1;1978;1;0
242;Харьковская, 58;27,513493;53,900326;3175;Молодёжная;956;Фрунзенский;150000;11,9183905731;2113;2;1;71;4,262679877;33,6;3,514526067;19;2,9444389792;0;1;2005;1;1
243;пр-д Голодеда, 25;27,616727;53,838501;7946;Автозаводская;3957;Заводской;55000;10,9150884642;1122;2;2;49;3,8918202981;34;3,5263605246;6;1,7917594692;1;0;1900;1;1
244;Рокоссовского, 147;27,615137;53,854199;6381;Партизанская;2535;Ленинский;56000;10,9331069697;1120;2;2;50;3,9120230054;34;3,5263605246;6,2;1,8245492921;0;0;1970;1;1
245;Маяковского, 164;27,570886;53,863343;4366;Пролетарская;3180;Ленинский;69500;11,1490820316;1139;2;2;61;4,1108738642;34;3,5263605246;8;2,0794415417;0;1;1957;0;1
246;М.Богдановича, 80;27,574614;53,927172;2890;Площадь Якуба Коласа;1386;Советский;79000;11,2772031314;1491;2;2;53;3,9702919136;34;3,5263605246;6;1,7917594692;0;1;1968;0;0
247;Ауэзова, 8;27,644853;53,83721;9047;Могилёвская;3334;Заводской;55000;10,9150884642;1102;2;2;49,9;3,9100210028;34,4;3,5380565644;6,2;1,8245492921;0;0;1970;1;1
248;Ландера, 28;27,495068;53,840393;8151;Институт Культуры;5878;Октябрьский;54000;10,8967393255;1087;2;2;49,7;3,9060049331;34,4;3,5380565644;6,2;1,8245492921;0;0;1968;1;1
249;пр-т Рокоссовского, 116;27,607681;53,856174;5937;Партизанская;2571;Ленинский;68500;11,1345890243;1245;3;2;55;4,0073331852;35;3,5553480615;7,6;2,0281482473;0;1;1975;1;0
250;Козыревская, 35/1;27,568182;53,862435;4446;Институт Культуры;3196;Ленинский;56000;10,9331069697;1057;3;2;53;3,9702919136;35;3,5553480615;6;1,7917594692;1;0;1967;1;0
251;Ленина, 15;27,561382;53,898814;386;Купаловская;222;Ленинский;105000;11,5617156291;1944;2;2;54;3,9889840466;35;3,5553480615;8,7;2,1633230257;0;1;1948;1;0
252;пр-т Независимости, 168;27,689266;53,944521;9567;Уручье;156;Первомайский;170000;12,043553716;2429;2;2;70;4,248495242;35;3,5553480615;14;2,6390573296;0;0;2007;1;1
253;Фроликова, 41;27,61599;53,899159;3560;Тракторный завод;1010;Партизанский;53000;10,8780471925;994;2;2;53,3;3,9759363312;35,4;3,5667118201;7;1,9459101491;0;1;1975;0;1
254;Скрыганова, 5;27,514679;53,909742;3199;Молодёжная;686;Фрунзенский;74000;11,2118203722;1138;3;0;65;4,1743872699;35,5;3,5695326965;8;2,0794415417;0;1;1967;0;0
255;пр-т Независимости, 91;27,610026;53,923774;3955;Парк Челюскинцев;212;Первомайский;205000;12,2307652581;3213;2;2;63,8;4,1557531904;36;3,5835189385;11,7;2,4595888418;0;1;1947;1;1
256;П.Панченко, 62;27,554914;53,906077;621;Немига;71;Фрунзенский;83000;11,3265958868;1122;2;0;74;4,3040650932;36;3,5835189385;11;2,3978952728;0;0;2008;0;1
257;П.Панченко, 78;27,554914;53,906077;621;Немига;71;Фрунзенский;77000;11,2515607008;1027;2;0;75;4,3174881135;36;3,5835189385;11;2,3978952728;1;0;2008;1;1
258;Мазурова, 18;27,426185;53,896326;8909;Каменная Горка;1358;Фрунзенский;78000;11,2644641057;1114;2;0;70;4,248495242;36;3,5835189385;12;2,4849066498;0;0;2003;1;1
259;пр-т Независимости, 183/3;27,69003;53,946811;9738;Уручье;207;Первомайский;110000;11,6082356448;1565;2;2;70,3;4,2527717988;36,2;3,5890591188;15,2;2,7212954279;0;1;2008;1;1
260;Маяковского, 152;27,568371;53,86878;3746;Институт Культуры;2656;Ленинский;90000;11,4075649493;1475;2;2;61;4,1108738642;37;3,6109179126;8;2,0794415417;1;1;1982;1;1
261;Некрасова, 33;27,584046;53,932521;3661;Академия наук;1517;Советский;82000;11,3144745262;1302;3;2;63;4,1431347264;37;3,6109179126;9;2,1972245773;1;0;1982;1;1
262;Гуртьева, 12;27,740614;53,958128;13240;Уручье;3733;Первомайский;60000;11,0020998412;1119;2;2;53,6;3,9815490681;37,6;3,6270040504;6,2;1,8245492921;0;0;1968;1;1
263;Я.Купалы,11;27,568443;53,902061;431;Октябрьская;427;Ленинский;160000;11,9829290942;2857;2;2;56;4,0253516907;38;3,6375861597;6,5;1,8718021769;0;1;1960;1;0
264;Я.Купалы, 11;27,568443;53,902061;431;Октябрьская;427;Ленинский;160000;11,9829290942;2857;2;2;56;4,0253516907;38;3,6375861597;6,5;1,8718021769;0;1;1960;1;0
265;Могилевская, 4/1;27,5394;53,882741;2622;Институт Культуры;373;Октябрьский;88000;11,3850920935;1333;3;2;66;4,189654742;38;3,6375861597;9;2,1972245773;0;0;1985;1;1
266;Гамарника, 16/а;27,61423;53,957053;6985;Московская;3333;Советский;98000;11,4927227577;1307;2;2;75;4,3174881135;38;3,6375861597;10,4;2,3418058061;0;0;2010;0;1
267;Киселева, 49;27,5629;53,914176;1324;Площадь Победы;976;Центральный;86500;11,3678996929;1573;2;2;55;4,0073331852;38;3,6375861597;5,5;1,7047480922;1;1;1949;1;0
268;Берестянская, 2;27,586337;53,904819;1627;Площадь Победы;877;Партизанский;114000;11,6439537274;1900;2;2;60;4,0943445622;39;3,6635616461;8;2,0794415417;0;1;1960;1;1
269;Клумова, 5;27,601806;53,890001;2949;Тракторный завод;821;Ленинский;98000;11,4927227577;1361;3;2;72;4,276666119;40;3,6888794541;10;2,302585093;1;1;1951;1;0
270;Чкалова, 9/2;27,536624;53,877327;3228;Институт Культуры;1000;Октябрьский;100000;11,512925465;1515;3;2;66;4,189654742;40;3,6888794541;9;2,1972245773;0;1;1979;1;1
271;Козлова, 6;27,581881;53,908167;1465;Площадь Победы;450;Партизанский;140000;11,8493977016;1867;3;2;75;4,3174881135;40;3,6888794541;11;2,3978952728;1;1;1959;1;0
272;Восточная, 64;27,600998;53,941787;5083;Парк Челюскинцев;2101;Советский;90000;11,4075649493;1385;3;2;65;4,1743872699;40;3,6888794541;9;2,1972245773;0;1;1987;1;1
273;П.Панченко, 64;27,554914;53,906077;621;Немига;71;Фрунзенский;71000;11,170435156;1268;2;0;56;4,0253516907;40;3,6888794541;9;2,1972245773;0;0;2009;0;1
274;Гвардейская, 10;27,531782;53,913794;2349;Молодёжная;968;Центральный;340000;12,7367008966;4742;2;2;71,7;4,2724907476;40;3,6888794541;11;2,3978952728;0;1;1900;1;1
275;Ландера, 72;27,49187;53,843623;7970;Институт Культуры;5686;Октябрьский;57000;10,9508065468;983;3;2;58;4,0604430105;41;3,7135720667;6;1,7917594692;1;0;1970;1;1
276;Мельникайте, 16;27,545006;53,909604;1372;Фрунзенская;597;Центральный;125000;11,7360690163;1894;3;2;66;4,189654742;41;3,7135720667;8,4;2,1282317058;0;1;1900;0;0
277;Я.Коласа, 52;27,606127;53,937541;4873;Парк Челюскинцев;1543;Первомайский;79000;11,2772031314;1339;3;2;59;4,0775374439;41;3,7135720667;8;2,0794415417;0;0;1970;1;0
278;Сухаревская, 34;27,434351;53,889423;8471;Каменная Горка;1920;Фрунзенский;79000;11,2772031314;1152;3;0;68,6;4,2282925347;41,9;3,7352858269;7,2;1,974081026;0;0;1994;0;1
279;Лазо, 10;27,659298;53,869131;7368;Автозаводская;734;Заводской;62500;11,0429218357;1030;3;2;61;4,1108738642;42;3,7376696183;8,6;2,1517622033;1;1;1900;1;1
280;пр-т Независимости, 69;27,595859;53,921351;3073;Академия наук;223;Советский;250000;12,4292161968;3472;3;2;72;4,276666119;42;3,7376696183;10;2,302585093;1;1;1949;1;1
281;Сторожевская, 8;27,555444;53,912951;1259;Немига;808;Центральный;185000;12,1281111041;2534;3;2;73;4,2904594411;42;3,7376696183;14;2,6390573296;0;1;1987;1;0
282;Парковая, 3/а;27,808553;53,818684;18645;Могилёвская;10040;Центральный;125000;11,7360690163;1603;3;2;78;4,3567088267;42;3,7376696183;9,6;2,2617630985;0;0;2006;1;0
283;50 лет Победы, 1-2;27,719135;53,946657;11412;Уручье;2061;Первомайский;82000;11,3144745262;1262;3;2;65;4,1743872699;42,2;3,742420221;7,2;1,974081026;0;0;1995;1;1
284;Кирова, 19;27,559037;53,897249;589;Купаловская;432;Ленинский;125000;11,7360690163;1786;3;2;70;4,248495242;43;3,7612001157;8;2,0794415417;1;1;1928;1;0
285;Первомайская, 20/3;27,576896;53,899674;1025;Первомайская;761;Партизанский;160000;11,9829290942;2353;3;2;68;4,2195077052;43;3,7612001157;9;2,1972245773;0;1;1980;1;1
286;Стариновская, 4;27,696668;53,943626;9946;Уручье;626;Первомайский;90000;11,4075649493;1406;3;2;64;4,1588830834;43;3,7612001157;7;1,9459101491;0;0;1990;1;1
287;Городецкая, 2;27,689859;53,951336;9993;Уручье;657;Первомайский;80000;11,2897819137;1231;3;2;65;4,1743872699;43;3,7612001157;7,2;1,974081026;1;0;1990;0;1
288;Мирошниченко, 10/1;27,614886;53,958044;7102;Московская;3429;Советский;85000;11,3504065355;1349;3;2;63;4,1431347264;43;3,7612001157;7;1,9459101491;0;0;1980;1;1
289;Некрасова, 28;27,585924;53,935156;3979;Академия наук;1685;Советский;133000;11,7981044072;1956;3;2;68;4,2195077052;43;3,7612001157;9;2,1972245773;0;1;1900;0;0
290;Лобанка, 89;27,43259;53,884891;8683;Каменная Горка;2433;Фрунзенский;77000;11,2515607008;1203;3;0;64;4,1588830834;43;3,7612001157;7;1,9459101491;0;0;1993;1;1
291;Матусевича, 11;27,484612;53,914245;5229;Спортивная;706;Фрунзенский;68000;11,1272629842;1147;3;0;59,3;4,082609306;43;3,7612001157;6;1,7917594692;0;0;1970;1;0
292;Сухаревская, 8;27,439382;53,88427;8267;Каменная Горка;2485;Фрунзенский;75000;11,2252433925;1190;3;0;63;4,1431347264;43;3,7612001157;7;1,9459101491;0;0;1993;1;1
293;Лещинского, 17;27,451168;53,909981;7298;Кунцевщина;485;Фрунзенский;75000;11,2252433925;1119;3;0;67;4,2046926194;43;3,7612001157;7;1,9459101491;0;0;1989;1;1
294;Радужная, 8/2;27,496299;53,933269;5503;Пушкинская;2650;Центральный;90000;11,4075649493;1406;3;2;64;4,1588830834;43;3,7612001157;7;1,9459101491;0;0;1986;1;1
295;Есенина, 55;27,440226;53,856233;9470;Каменная Горка;5600;Московский;75000;11,2252433925;1192;3;2;62,9;4,1415461637;43,2;3,7658404953;9,2;2,2192034841;0;0;1997;1;1
296;Широкая, 38;27,602659;53,949725;5910;Московская;2901;Советский;109000;11,5991031612;1535;3;2;71;4,262679877;43,3;3,768152635;9,05;2,2027647577;0;0;1900;1;1
297;Алибегова, 3;27,482052;53,870458;6311;Институт Культуры;4194;Московский;82500;11,3205535723;1307;3;2;63,13;4,1451960924;43,41;3,7706898293;7,11;1,9615022438;0;0;1978;1;1
298;М.Богдановича, 55;27,561499;53,918577;1812;Площадь Победы;1372;Советский;95000;11,4616321706;1498;3;2;63,42;4,1497792691;43,57;3,7743688401;7,23;1,9782390362;0;0;1979;1;1
299;М.Лынькова, 23/а;27,554914;53,906077;621;Немига;71;Фрунзенский;89000;11,3963916487;1249;3;0;72;4,276666119;43,8;3,7796338174;9,32;2,2321626287;0;0;1978;1;1
300;Балтийская, 4;27,561732;53,859594;4743;Институт Культуры;3257;Ленинский;89000;11,3963916487;1203;3;2;74;4,3040650932;44;3,7841896339;10;2,302585093;0;0;2010;1;1
301;Кунцевщина, 48;27,437522;53,915125;8264;Каменная Горка;947;Фрунзенский;86000;11,3621025752;1344;3;0;64;4,1588830834;44;3,7841896339;7;1,9459101491;0;0;1998;1;1
302;Колесникова, 10;27,438016;53,918291;8300;Каменная Горка;1300;Фрунзенский;99900;11,5119249646;1388;3;0;72;4,276666119;44;3,7841896339;11,5;2,4423470354;0;0;2001;1;1
303;Харьковская, 58;27,513493;53,900326;3175;Молодёжная;956;Фрунзенский;105000;11,5617156291;1265;3;0;83;4,4188406078;44;3,7841896339;12;2,4849066498;0;1;2007;0;1
304;Притыцкого, 87;27,44779;53,905668;7478;Кунцевщина;423;Фрунзенский;110000;11,6082356448;1163;3;0;94,6;4,5496574761;44,5;3,7954891892;13;2,5649493575;1;0;2009;0;1
305;Немига, 42;27,541996;53,899488;1338;Фрунзенская;681;Московский;179000;12,0951410848;2238;3;2;80;4,3820266347;44,8;3,8022081394;14,1;2,6461747974;0;0;2006;0;0
306;Есенина, 85;27,4424;53,860263;9113;Кунцевщина;5142;Московский;50000;10,8197782844;877;1;2;57;4,0430512678;45;3,8066624898;9;2,1972245773;0;0;1987;1;1
307;Есенина, 143;27,428827;53,864437;9676;Каменная Горка;4719;Московский;94700;11,4584692792;1334;3;2;71;4,262679877;45;3,8066624898;10;2,302585093;0;0;2000;1;1
308;Казинца, 122;27,50283;53,840829;7848;Институт Культуры;5595;Октябрьский;53000;10,8780471925;1000;2;2;53;3,9702919136;45;3,8066624898;7,5;2,0149030205;0;1;1985;1;0
309;Кальварийская, 5;27,536705;53,905334;1682;Фрунзенская;171;Московский;170000;12,043553716;2191;3;2;77,6;4,3515674272;46;3,8286413965;13,5;2,6026896854;0;1;2009;1;1
310;Брестская,  68/2;27,519053;53,853938;6060;Институт Культуры;3832;Октябрьский;95000;11,4616321706;1397;3;2;68;4,2195077052;46;3,8286413965;7;1,9459101491;0;0;1978;1;1
311;Московская, 7;27,539786;53,889359;2037;Институт Культуры;369;Октябрьский;90000;11,4075649493;1200;3;2;75;4,3174881135;46;3,8286413965;7,5;2,0149030205;1;1;1953;1;1
312;Захарова, 56;27,583265;53,898379;1466;Пролетарская;920;Партизанский;145000;11,8844890214;1908;3;2;76;4,3307333403;46;3,8286413965;12;2,4849066498;0;1;1972;1;0
313;Менделеева, 5;27,620716;53,900889;3856;Тракторный завод;1267;Партизанский;72000;11,184421398;1167;3;2;61,7;4,1222839309;46;3,8286413965;6;1,7917594692;1;0;1966;0;0
314;пл. Независимости, 153/1;27,547242;53,895509;1218;Площадь Ленина;228;Первомайский;72500;11,1913418408;1189;3;2;61;4,1108738642;46;3,8286413965;6,2;1,8245492921;1;1;1968;1;0
315;Кропоткина, 114;27,56705;53,925619;2616;Площадь Якуба Коласа;1535;Советский;150000;11,9183905731;1899;3;2;79;4,3694478525;46;3,8286413965;10;2,302585093;0;1;2007;1;1
316;пр-т Пушкина, 3;27,496515;53,896416;4328;Пушкинская;1447;Фрунзенский;74000;11,2118203722;1147;3;0;64,5;4,1666652238;46;3,8286413965;7,5;2,0149030205;0;0;1973;1;1
317;Я.Купалы, 7;27,569727;53,900708;543;Купаловская;525;Ленинский;190000;12,1547793511;2490;3;2;76,32;4,3349350271;46,2;3,8329797981;7,13;1,9643112344;0;1;1969;1;1
318;Одинцова, 3/2;27,459549;53,898427;6713;Кунцевщина;912;Фрунзенский;118000;11,6784399034;1573;3;1;75;4,3174881135;46,8;3,8458832029;9,5;2,2512917986;1;0;2004;1;1
319;Селицкого, 79;27,703289;53,838199;11686;Могилёвская;3251;Заводской;83000;11,3265958868;1078;1;2;77;4,3438054219;47;3,8501476017;10;2,302585093;0;0;2009;0;1
320;Я.Мавра, 30;27,487576;53,901292;4865;Спортивная;899;Фрунзенский;70000;11,156250521;1077;3;0;65;4,1743872699;47;3,8501476017;7;1,9459101491;0;0;1971;1;1
321;40 лет победы, 32;27,576087;53,892532;1428;Первомайская;364;Первомайский;80000;11,2897819137;1000;3;2;80;4,3820266347;47;3,8501476017;11;2,3978952728;1;1;2010;1;1
322;Корженевского, 13;27,497682;53,847071;7438;Институт Культуры;5156;Октябрьский;75000;11,2252433925;1111;3;2;67,5;4,2121275979;47,8;3,8670256395;7,1;1,960094784;1;0;1975;1;1
323;Шамякина, 11;27,423868;53,893508;9088;Каменная Горка;1704;Фрунзенский;103000;11,5424842672;1108;3;0;93;4,5325994932;48;3,8712010109;12;2,4849066498;0;0;2007;1;1
324;Червякова, 64;27,548563;53,930719;3279;Немига;2799;Центральный;125000;11,7360690163;1359;3;2;92;4,521788577;48;3,8712010109;22;3,0910424534;1;0;2008;0;1
325;Одоевского, 107;27,483516;53,901838;5130;Спортивная;742;Фрунзенский;71000;11,170435156;1086;3;0;65,4;4,1805222585;48,2;3,8753590211;7,5;2,0149030205;1;0;1971;1;1
326;Мирошниченко, 12;27,616359;53,959214;7263;Московская;3535;Советский;97000;11,4824662575;1252;4;2;77,5;4,3502779364;48,96;3,8910036382;7,22;1,9768549529;0;0;1980;1;1
327;Грушевская, 91;27,514014;53,881388;3900;Институт Культуры;1801;Московский;120000;11,6952470218;1165;3;2;103;4,6347289882;49;3,8918202981;12;2,4849066498;0;1;2005;0;1
328;К.Чорного, 11;27,603001;53,926457;3804;Академия наук;550;Первомайский;108000;11,5898865061;1500;3;2;72;4,276666119;49;3,8918202981;10;2,302585093;1;1;1975;1;1
329;Ольшевского, 77;27,476815;53,923875;6063;Спортивная;1748;Фрунзенский;107000;11,5805841134;1646;3;1;65;4,1743872699;49;3,8918202981;7;1,9459101491;0;0;1975;1;1
330;Асаналиева, 5;27,549695;53,851267;5724;Институт Культуры;3914;Октябрьский;75000;11,2252433925;1006;4;2;74,52;4,3110675457;49,64;3,9047969603;7,2;1,974081026;1;0;1980;0;1
331;Городецкая, 20;27,684909;53,949312;9599;Уручье;454;Первомайский;205000;12,2307652581;2158;3;2;95;4,5538768916;50;3,9120230054;17;2,8332133441;1;1;1900;1;1
332;Лобанка, 22;27,43401;53,901393;8372;Каменная Горка;620;Фрунзенский;110000;11,6082356448;1393;3;0;79;4,3694478525;50;3,9120230054;11;2,3978952728;0;0;2007;1;1
333;Червякова,61/1;27,546542;53,930597;3303;Немига;2806;Центральный;152000;11,9316357998;1448;2;2;105;4,6539603502;50;3,9120230054;18;2,8903717579;0;1;2008;1;1
334;Червякова, 61/1;27,546542;53,930597;3303;Немига;2806;Центральный;152000;11,9316357998;1448;2;2;105;4,6539603502;50;3,9120230054;18;2,8903717579;0;1;2008;1;1
335;М.Горецкого, 7/2;27,454806;53,879461;7456;Кунцевщина;2950;Фрунзенский;90000;11,4075649493;1098;3;0;82;4,4067192473;51;3,9318256327;10;2,302585093;0;0;2008;1;1
336;Шаранговича, 80;27,425485;53,881467;9226;Каменная Горка;2900;Фрунзенский;93000;11,4403547721;1192;4;0;78;4,3567088267;51;3,9318256327;9;2,1972245773;0;0;1990;1;1
337;пр-т Независимости, 29;27,565388;53,904199;314;Октябрьская;312;Центральный;250000;12,4292161968;3125;3;2;80;4,3820266347;51;3,9318256327;10;2,302585093;0;1;1957;1;1
338;Одинцова, 7;27,457267;53,898231;6864;Кунцевщина;887;Фрунзенский;118000;11,6784399034;1490;3;1;79,2;4,3719762988;51,6;3,9435216725;10,5;2,3513752572;1;0;2004;1;0
339;Комсомольская, 26;27,554357;53,900273;540;Купаловская;485;Центральный;175000;12,0725412529;2244;3;2;78;4,3567088267;51,7;3,9454577815;14;2,6390573296;0;1;1900;1;1
340;пр-т Газ-ты Правда, 44;27,474533;53,862467;7232;Кунцевщина;5018;Московский;143000;11,8705999092;1723;3;2;83;4,4188406078;52;3,9512437186;13;2,5649493575;0;1;2004;0;1
341;Долгиновский тр-т, 50/5;27,547018;53,940303;4336;Площадь Якуба Коласа;3622;Центральный;140000;11,8493977016;1591;4;2;88;4,4773368145;52;3,9512437186;18;2,8903717579;0;1;1992;1;1
342;Лещинского, 7;27,452039;53,908771;7226;Кунцевщина;339;Фрунзенский;145000;11,8844890214;1762;4;1;82,3;4,4103711077;52,7;3,9646154555;7,1;1,960094784;0;0;1993;1;1
343;пр-т Независимости, 40;27,576177;53,908973;1196;Площадь Победы;68;Партизанский;147000;11,8981878658;2000;3;2;73,5;4,2972854062;52,9;3,9684033389;6,1;1,8082887712;0;1;1948;1;1
344;Космонавтов, 25;27,459109;53,851251;8802;Кунцевщина;6093;Московский;78000;11,2644641057;975;4;2;80;4,3820266347;53;3,9702919136;7;1,9459101491;1;0;1987;1;1
345;М.Танка, 16;27,535483;53,907716;1830;Фрунзенская;359;Центральный;135000;11,8130300574;1627;4;2;83;4,4188406078;53;3,9702919136;8,6;2,1517622033;1;1;1977;1;1
346;Слободская, 75;27,437801;53,852775;9814;Каменная Горка;5982;Московский;98000;11,4927227577;1250;4;2;78,4;4,3618239274;53,2;3,9740583963;7,1;1,960094784;0;0;1993;1;1
347;Могилевская, 8/2;27,544296;53,882704;2461;Институт Культуры;453;Октябрьский;98000;11,4927227577;1279;4;2;76,62;4,3388581393;53,67;3,9828541862;7,12;1,9629077254;0;1;1985;1;1
348;Олешева, 1;27,608193;53,944686;5604;Московская;2234;Советский;138000;11,8350089641;1426;3;2;96,8;4,5726469943;54;3,9889840466;13;2,5649493575;0;0;2010;0;1
349;М.Горецкого, 23;27,448904;53,883081;7699;Кунцевщина;2572;Фрунзенский;87000;11,3736633976;1115;4;0;78;4,3567088267;54;3,9889840466;7;1,9459101491;0;0;1996;1;1
350;Чайлытко, 16;27,436426;53,88782;8370;Каменная Горка;2088;Фрунзенский;95000;11,4616321706;1218;4;0;78;4,3567088267;54;3,9889840466;7,2;1,974081026;0;0;1995;1;1
351;Логойский т-т, 37/1;27,621174;53,957964;7304;Восток;3251;Советский;87000;11,3736633976;1145;4;2;76;4,3307333403;54;3,9889840466;7,2;1,974081026;1;0;1980;1;1
352;пр-т Победителей, 75-1;27,50769;53,931467;4806;Пушкинская;2542;Центральный;130000;11,7752897294;1512;4;2;86;4,4543472963;54,6;4,0000338828;7,3;1,9878743482;0;0;1986;1;1
353;пр-т Победителей, 3;27,551015;53,906416;847;Немига;210;Центральный;160000;11,9829290942;2078;3;2;77;4,3438054219;55;4,0073331852;7;1,9459101491;0;1;1969;1;0
354;Ваньковича, 55;27,642635;53,921552;5704;Московская;1230;Партизанский;170000;12,043553716;1700;3;2;100;4,605170186;55,5;4,0163830208;15,2;2,7212954279;0;0;2008;0;1
355;Слободская, 75;27,437801;53,852775;9814;Каменная Горка;5982;Московский;79000;11,2772031314;986;4;2;80,1;4,3832758541;55,8;4,0217738694;7,2;1,974081026;1;0;1993;1;1
356;Березогорская, 8;27,903038;53,873707;22569;Могилёвская;15067;Октябрьский;67000;11,1124478984;870;3;2;77;4,3438054219;56;4,0253516907;10;2,302585093;0;0;2009;0;1
357;Пулихова, 45;27,584397;53,894846;1690;Пролетарская;522;Партизанский;168000;12,0317192584;1627;3;2;110;4,7004803658;56;4,0253516907;17;2,8332133441;0;0;2009;0;1
358;Полевая, 10;27,566386;53,874238;3130;Институт Культуры;2152;Ленинский;131000;11,7829526022;1294;3;2;101,2;4,6170987569;57;4,0430512678;11,2;2,4159137783;0;1;2008;0;1
359;Берута, 11а;27,507025;53,90179;3591;Пушкинская;1063;Фрунзенский;131000;11,7829526022;926;4;0;141,5;4,9522997171;57,4;4,0500443033;17,2;2,8449093838;1;0;2008;0;1
360;Старовиленский тр-т, 10;27,54965;53,92257;2393;Немига;1893;Центральный;290000;12,577636202;2413;3;2;120,2;4,7891570221;57,6;4,0535225677;13,4;2,595254707;0;0;2007;0;0
361;Сурганова, 88;27,57836;53,931944;3469;Академия наук;1739;Советский;199000;12,2010601037;2008;3;2;99,1;4,5961294413;59;4,0775374439;17;2,8332133441;0;1;2003;0;0
362;Кирова, 3;27,551402;53,892686;1267;Площадь Ленина;235;Октябрьский;265000;12,487485105;2944;4;2;90;4,4998096703;60;4,0943445622;12;2,4849066498;0;1;1957;1;0
363;пер. Червякова, 64;27,538026;53,93858;4326;Молодёжная;3685;Центральный;125000;11,7360690163;1359;4;2;92;4,521788577;60;4,0943445622;10;2,302585093;1;0;2008;0;1
364;Восточная, 133;27,598653;53,941082;4939;Парк Челюскинцев;2093;Советский;190000;12,1547793511;2028;3;2;93,7;4,5400981892;62;4,127134385;12;2,4849066498;0;1;2003;0;1
365;Подгорная;27,681172;53,953297;9648;Уручье;959;Первомайский;226000;12,3282902783;2108;3;2;107,2;4,6746962486;62,5;4,1351665567;20,6;3,0252910758;0;1;2001;0;1
366;пр-т Пушкина, 81;27,498518;53,921223;4651;Пушкинская;1313;Фрунзенский;199900;12,2055725205;1931;4;1;103,5;4,6395716127;63,5;4,1510399059;10,5;2,3513752572;0;1;1995;1;1
367;пр-т Победителей, 57;27,528611;53,920412;2967;Молодёжная;1577;Центральный;330000;12,7068479334;3134;3;2;105,3;4,6568134191;65,3;4,1789920363;11,2;2,4159137783;1;0;2004;1;1
368;Пионерская, 7;27,487504;53,938872;6342;Пушкинская;3333;Центральный;211000;12,2596134125;1702;3;2;124;4,8202815656;67;4,2046926194;14,7;2,6878474938;1;0;2008;0;1
369;Корш-Саблина, 9;27,59099;53,936015;4206;Академия наук;1633;Советский;171000;12,0494188355;1479;4;2;115,6;4,7501359562;68,3;4,2239097666;19,6;2,9755295662;0;1;2008;0;1
370;Пулихова, 7/2;27,57677;53,898873;1046;Первомайская;681;Партизанский;200000;12,2060726455;1887;4;2;106;4,6634390941;69;4,2341065046;8;2,0794415417;0;1;1980;1;1
371;Логойский тр-т, 10;27,608678;53,941373;5316;Московская;1921;Первомайский;405000;12,9116423461;2626;3;2;154,2;5,0382504611;70,8;4,2598590007;23,8;3,1696855807;0;1;1900;1;1
372;Брестская, 87;27,522494;53,851442;6210;Институт Культуры;4020;Октябрьский;158000;11,970350312;1254;3;2;126;4,836281907;71;4,262679877;30,6;3,421000009;1;1;2003;1;1
373;Скрипникова, 7;27,420733;53,889444;9351;Каменная Горка;2197;Фрунзенский;175500;12,0753943219;1350;4;0;130;4,8675344505;71;4,262679877;12;2,4849066498;1;0;2010;1;1
374;Калинина, 7/а;27,605759;53,926409;3930;Парк Челюскинцев;538;Первомайский;230000;12,3458345879;1983;3;2;116;4,7535901911;71;4,262679877;12;2,4849066498;0;1;2009;0;1
375;Воронянского, 21;27,551096;53,878102;2777;Институт Культуры;1130;Октябрьский;195000;12,1807548375;1726;4;2;113;4,7273878187;72;4,276666119;10;2,302585093;0;0;2000;1;1
376;Корш-Саблина, 11;27,59073;53,935596;4157;Академия наук;1595;Советский;177600;12,0872891095;1370;4;2;129,6;4,8644527839;74,5;4,3107991254;14,6;2,6810215287;1;1;2009;0;1
377;Л.Беды, 40;27,596452;53,939693;4734;Академия наук;1962;Советский;150000;11,9183905731;1181;3;2;127;4,8441870865;80;4,3820266347;16;2,7725887222;0;1;2007;0;1
378;пер. Луговой, 119;27,5697;53,882147;2295;Первомайская;1296;Ленинский;100000;11,512925465;1136;3;2;88;4,4773368145;81;4,3944491547;6;1,7917594692;0;1;1995;1;1
379;Славинского, 8;27,629483;53,941617;6220;Московская;1510;Первомайский;390000;12,8739020181;2151;4;2;181,3;5,2001531178;86,5;4,4601444139;26,4;3,2733640102;0;1;1999;1;1
380;Стариновская, 25;27,697692;53,946684;10166;Уручье;667;Первомайский;270000;12,506177238;1996;3;2;135,3;4,9074945352;88;4,4773368145;20,2;3,0056826044;1;1;2005;1;1
381;Пионерская, 9;27,48587;53,938702;6413;Пушкинская;3337;Центральный;276000;12,5281561447;2000;4;2;138;4,9272536852;88,6;4,4841318576;14,2;2,6532419646;0;0;2008;0;1
382;пр-т Рокоссовского, 80;27,603737;53,862982;5156;Партизанская;2183;Ленинский;160000;11,9829290942;1584;3;2;100;4,605170186;95;4,5538768916;6;1,7917594692;0;0;2007;0;1
383;Можайская, 51;27,554914;53,906077;621;Немига;71;Советский;399000;12,8967166959;1975;4;2;202;5,3082676974;100;4,605170186;16;2,7725887222;1;1;2004;1;1
384;Партизанский пр-т, 19/а;27,592922;53,88411;2865;Пролетарская;802;Ленинский;225900;12,3278477025;1500;4;2;150,6;5,0146273154;102,1;4,6259527252;12,2;2,5014359517;1;0;2008;0;1
385;пер. Калининградский, 6;27,597889;53,92599;3536;Академия наук;439;Первомайский;225000;12,3238556812;1500;4;2;150;5,0106352941;110;4,7004803658;20;2,9957322736;0;1;2003;0;1
386;Логойский тр-т, 10;27,608678;53,941373;5316;Московская;1921;Советский;353000;12,7742233359;1801;4;2;196;5,2781146592;117;4,7621739348;22;3,0910424534;0;1;1997;1;1
387;Тимошенко, 24/1;27,462325;53,899615;6524;Кунцевщина;886;Фрунзенский;59500;10,9937315915;1266;2;0;47;3,8501476017;28,07;3,3347013904;7,2;1,974081026;1;0;1981;1;1
